{"type": "FeatureCollection", "features": [ {"type": "Feature", "properties": {"norad_id": 34683, "name": "COSMOS 2251 DEB", "group": "cosmos-2251-debris", "lat": -48.872792402156364, "lon": 55.724662770304434, "alt_km": 690.9497266854914, "timestamp": "2025-12-21T18:54:58.890525+00:00", "meta": {"OBJECT_NAME": "COSMOS 2251 DEB", "OBJECT_ID": "1993-036YD", "EPOCH": "2025-12-20T15:57:48.625632", "MEAN_MOTION": 14.64579206, "ECCENTRICITY": 0.00177258, "INCLINATION": 74.0297, "RA_OF_ASC_NODE": 77.0284, "ARG_OF_PERICENTER": 191.9908, "MEAN_ANOMALY": 317.5627, "EPHEMERIS_TYPE": 0, "CLASSIFICATION_TYPE": "U", "NORAD_CAT_ID": 34683, "ELEMENT_SET_NO": 999, "REV_AT_EPOCH": 88464, "BSTAR": 0.00073577789, "MEAN_MOTION_DOT": 3.886e-05, "MEAN_MOTION_DDOT": 0}, "tle": {"line1": "1 34683U 93036YD  25354.66514613  .00003886  00000+0  73578-3 0  9993", "line2": "2 34683  74.0297  77.0284 0017725 191.9908 317.5627 14.64579206884647"}}, "geometry": {"type": "Point", "coordinates": [55.724662770304434, -48.872792402156364]}}, {"type": "Feature", "properties": {"norad_id": 34685, "name": "COSMOS 2251 DEB", "group": "cosmos-2251-debris", "lat": -48.60536199374025, "lon": -29.462702630400933, "alt_km": 697.4512185457043, "timestamp": "2025-12-21T18:54:58.890535+00:00", "meta": {"OBJECT_NAME": "COSMOS 2251 DEB", "OBJECT_ID": "1993-036YF", "EPOCH": "2025-12-21T03:52:45.370272", "MEAN_MOTION": 14.57573562, "ECCENTRICITY": 0.00142616, "INCLINATION": 74.0293, "RA_OF_ASC_NODE": 132.7689, "ARG_OF_PERICENTER": 237.5359, "MEAN_ANOMALY": 307.3846, "EPHEMERIS_TYPE": 0, "CLASSIFICATION_TYPE": "U", "NORAD_CAT_ID": 34685, "ELEMENT_SET_NO": 999, "REV_AT_EPOCH": 88654, "BSTAR": 0.00067584207, "MEAN_MOTION_DOT": 3.053e-05, "MEAN_MOTION_DDOT": 0}, "tle": {"line1": "1 34685U 93036YF  25355.16163623  .00003053  00000+0  67584-3 0  9998", "line2": "2 34685  74.0293 132.7689 0014261 237.5359 307.3846 14.57573562886544"}}, "geometry": {"type": "Point", "coordinates": [-29.462702630400933, -48.60536199374025]}}, {"type": "Feature", "properties": {"norad_id": 34689, "name": "COSMOS 2251 DEB", "group": "cosmos-2251-debris", "lat": 33.304382658604595, "lon": 16.85874230940864, "alt_km": 977.9718131388581, "timestamp": "2025-12-21T18:54:58.890544+00:00", "meta": {"OBJECT_NAME": "COSMOS 2251 DEB", "OBJECT_ID": "1993-036YK", "EPOCH": "2025-12-15T15:20:16.539648", "MEAN_MOTION": 14.04491905, "ECCENTRICITY": 0.02275051, "INCLINATION": 74.0901, "RA_OF_ASC_NODE": 218.3502, "ARG_OF_PERICENTER": 286.6099, "MEAN_ANOMALY": 101.262, "EPHEMERIS_TYPE": 0, "CLASSIFICATION_TYPE": "U", "NORAD_CAT_ID": 34689, "ELEMENT_SET_NO": 999, "REV_AT_EPOCH": 84382, "BSTAR": 0.0020174062, "MEAN_MOTION_DOT": 4.031e-05, "MEAN_MOTION_DDOT": 0}, "tle": {"line1": "1 34689U 93036YK  25349.63908032  .00004031  00000+0  20174-2 0  9998", "line2": "2 34689  74.0901 218.3502 0227505 286.6099 101.2620 14.04491905843829"}}, "geometry": {"type": "Point", "coordinates": [16.85874230940864, 33.304382658604595]}}, {"type": "Feature", "properties": {"norad_id": 34721, "name": "COSMOS 2251 DEB", "group": "cosmos-2251-debris", "lat": -63.93058665835172, "lon": -85.56831169281293, "alt_km": 790.9718327135852, "timestamp": "2025-12-21T18:54:58.890554+00:00", "meta": {"OBJECT_NAME": "COSMOS 2251 DEB", "OBJECT_ID": "1993-036YP", "EPOCH": "2025-12-21T03:52:51.241152", "MEAN_MOTION": 13.96883569, "ECCENTRICITY": 0.02230104, "INCLINATION": 73.9233, "RA_OF_ASC_NODE": 311.6355, "ARG_OF_PERICENTER": 249.0596, "MEAN_ANOMALY": 130.8495, "EPHEMERIS_TYPE": 0, "CLASSIFICATION_TYPE": "U", "NORAD_CAT_ID": 34721, "ELEMENT_SET_NO": 999, "REV_AT_EPOCH": 85267, "BSTAR": 0.00073678723, "MEAN_MOTION_DOT": 1.239e-05, "MEAN_MOTION_DDOT": 0}, "tle": {"line1": "1 34721U 93036YP  25355.16170418  .00001239  00000+0  73679-3 0  9995", "line2": "2 34721  73.9233 311.6355 0223010 249.0596 130.8495 13.96883569852679"}}, "geometry": {"type": "Point", "coordinates": [-85.56831169281293, -63.93058665835172]}}, {"type": "Feature", "properties": {"norad_id": 34722, "name": "COSMOS 2251 DEB", "group": "cosmos-2251-debris", "lat": -66.88630462073246, "lon": -82.74883356428082, "alt_km": 770.3468140566993, "timestamp": "2025-12-21T18:54:58.890581+00:00", "meta": {"OBJECT_NAME": "COSMOS 2251 DEB", "OBJECT_ID": "1993-036YQ", "EPOCH": "2025-12-21T14:44:07.154880", "MEAN_MOTION": 14.11959148, "ECCENTRICITY": 0.01666804, "INCLINATION": 73.8731, "RA_OF_ASC_NODE": 320.239, "ARG_OF_PERICENTER": 244.2474, "MEAN_ANOMALY": 236.1005, "EPHEMERIS_TYPE": 0, "CLASSIFICATION_TYPE": "U", "NORAD_CAT_ID": 34722, "ELEMENT_SET_NO": 999, "REV_AT_EPOCH": 86370, "BSTAR": 0.0005654462, "MEAN_MOTION_DOT": 1.152e-05, "MEAN_MOTION_DDOT": 0}, "tle": {"line1": "1 34722U 93036YQ  25355.61397170  .00001152  00000+0  56545-3 0  9999", "line2": "2 34722  73.8731 320.2390 0166680 244.2474 236.1005 14.11959148863706"}}, "geometry": {"type": "Point", "coordinates": [-82.74883356428082, -66.88630462073246]}}, {"type": "Feature", "properties": {"norad_id": 34726, "name": "COSMOS 2251 DEB", "group": "cosmos-2251-debris", "lat": 56.83516475266817, "lon": -4.944800269869209, "alt_km": 672.4827478404941, "timestamp": "2025-12-21T18:54:58.890592+00:00", "meta": {"OBJECT_NAME": "COSMOS 2251 DEB", "OBJECT_ID": "1993-036YU", "EPOCH": "2025-12-21T08:46:11.071488", "MEAN_MOTION": 14.5951262, "ECCENTRICITY": 0.00417411, "INCLINATION": 74.0281, "RA_OF_ASC_NODE": 329.8686, "ARG_OF_PERICENTER": 117.8308, "MEAN_ANOMALY": 242.7097, "EPHEMERIS_TYPE": 0, "CLASSIFICATION_TYPE": "U", "NORAD_CAT_ID": 34726, "ELEMENT_SET_NO": 999, "REV_AT_EPOCH": 88628, "BSTAR": 0.0003308409, "MEAN_MOTION_DOT": 1.56e-05, "MEAN_MOTION_DDOT": 0}, "tle": {"line1": "1 34726U 93036YU  25355.36540592  .00001560  00000+0  33084-3 0  9999", "line2": "2 34726  74.0281 329.8686 0041741 117.8308 242.7097 14.59512620886281"}}, "geometry": {"type": "Point", "coordinates": [-4.944800269869209, 56.83516475266817]}}, {"type": "Feature", "properties": {"norad_id": 34728, "name": "COSMOS 2251 DEB", "group": "cosmos-2251-debris", "lat": -48.266280645052404, "lon": -144.56078442354752, "alt_km": 659.5749608076003, "timestamp": "2025-12-21T18:54:58.890602+00:00", "meta": {"OBJECT_NAME": "COSMOS 2251 DEB", "OBJECT_ID": "1993-036YW", "EPOCH": "2025-12-20T02:20:18.568032", "MEAN_MOTION": 14.70905998, "ECCENTRICITY": 0.00414013, "INCLINATION": 74.0163, "RA_OF_ASC_NODE": 237.4676, "ARG_OF_PERICENTER": 33.08, "MEAN_ANOMALY": 327.2947, "EPHEMERIS_TYPE": 0, "CLASSIFICATION_TYPE": "U", "NORAD_CAT_ID": 34728, "ELEMENT_SET_NO": 999, "REV_AT_EPOCH": 88908, "BSTAR": 0.00043281985, "MEAN_MOTION_DOT": 2.653e-05, "MEAN_MOTION_DDOT": 0}, "tle": {"line1": "1 34728U 93036YW  25354.09743713  .00002653  00000+0  43282-3 0  9995", "line2": "2 34728  74.0163 237.4676 0041401  33.0800 327.2947 14.70905998889085"}}, "geometry": {"type": "Point", "coordinates": [-144.56078442354752, -48.266280645052404]}}, {"type": "Feature", "properties": {"norad_id": 34729, "name": "COSMOS 2251 DEB", "group": "cosmos-2251-debris", "lat": -5.142091585366812, "lon": -20.97399474369952, "alt_km": 624.4968475898104, "timestamp": "2025-12-21T18:54:58.890612+00:00", "meta": {"OBJECT_NAME": "COSMOS 2251 DEB", "OBJECT_ID": "1993-036YX", "EPOCH": "2025-12-21T03:19:22.028160", "MEAN_MOTION": 14.83009492, "ECCENTRICITY": 0.00118737, "INCLINATION": 74.0178, "RA_OF_ASC_NODE": 341.7906, "ARG_OF_PERICENTER": 95.888, "MEAN_ANOMALY": 31.6413, "EPHEMERIS_TYPE": 0, "CLASSIFICATION_TYPE": "U", "NORAD_CAT_ID": 34729, "ELEMENT_SET_NO": 999, "REV_AT_EPOCH": 88582, "BSTAR": 0.0012387891, "MEAN_MOTION_DOT": 0.00010064, "MEAN_MOTION_DDOT": 0}, "tle": {"line1": "1 34729U 93036YX  25355.13844940  .00010064  00000+0  12388-2 0  9993", "line2": "2 34729  74.0178 341.7906 0011873  95.8880  31.6413 14.83009492885821"}}, "geometry": {"type": "Point", "coordinates": [-20.97399474369952, -5.142091585366812]}}, {"type": "Feature", "properties": {"norad_id": 34732, "name": "COSMOS 2251 DEB", "group": "cosmos-2251-debris", "lat": 36.89070775128163, "lon": -116.12012612165539, "alt_km": 728.5051451603904, "timestamp": "2025-12-21T18:54:58.890622+00:00", "meta": {"OBJECT_NAME": "COSMOS 2251 DEB", "OBJECT_ID": "1993-036ZA", "EPOCH": "2025-12-21T05:08:15.253152", "MEAN_MOTION": 14.47309229, "ECCENTRICITY": 0.00402182, "INCLINATION": 74.0456, "RA_OF_ASC_NODE": 77.3511, "ARG_OF_PERICENTER": 226.7756, "MEAN_ANOMALY": 164.853, "EPHEMERIS_TYPE": 0, "CLASSIFICATION_TYPE": "U", "NORAD_CAT_ID": 34732, "ELEMENT_SET_NO": 999, "REV_AT_EPOCH": 88266, "BSTAR": 9.8245865e-05, "MEAN_MOTION_DOT": 3.35e-06, "MEAN_MOTION_DDOT": 0}, "tle": {"line1": "1 34732U 93036ZA  25355.21406543  .00000335  00000+0  98246-4 0  9998", "line2": "2 34732  74.0456  77.3511 0040218 226.7756 164.8530 14.47309229882669"}}, "geometry": {"type": "Point", "coordinates": [-116.12012612165539, 36.89070775128163]}}, {"type": "Feature", "properties": {"norad_id": 34736, "name": "COSMOS 2251 DEB", "group": "cosmos-2251-debris", "lat": 55.40525135044168, "lon": 40.87504817694483, "alt_km": 394.36710324245996, "timestamp": "2025-12-21T18:54:58.890632+00:00", "meta": {"OBJECT_NAME": "COSMOS 2251 DEB", "OBJECT_ID": "1993-036ZE", "EPOCH": "2025-12-21T12:29:17.999808", "MEAN_MOTION": 15.5496932, "ECCENTRICITY": 0.0013755, "INCLINATION": 73.9985, "RA_OF_ASC_NODE": 16.8807, "ARG_OF_PERICENTER": 339.6782, "MEAN_ANOMALY": 20.3884, "EPHEMERIS_TYPE": 0, "CLASSIFICATION_TYPE": "U", "NORAD_CAT_ID": 34736, "ELEMENT_SET_NO": 999, "REV_AT_EPOCH": 88584, "BSTAR": 0.0065005716, "MEAN_MOTION_DOT": 0.00463237, "MEAN_MOTION_DDOT": 0}, "tle": {"line1": "1 34736U 93036ZE  25355.52034722  .00463237  00000+0  65006-2 0  9992", "line2": "2 34736  73.9985  16.8807 0013755 339.6782  20.3884 15.54969320885847"}}, "geometry": {"type": "Point", "coordinates": [40.87504817694483, 55.40525135044168]}}]}